[{"OBJECT_NAME":"PIAST-M","OBJECT_ID":"2025-276CW","EPOCH":"2026-03-09T17:04:49.285920","MEAN_MOTION":15.19194203,"ECCENTRICITY":7.473e-5,"INCLINATION":97.4255,"RA_OF_ASC_NODE":144.0316,"ARG_OF_PERICENTER":58.1322,"MEAN_ANOMALY":301.9986,"EPHEMERIS_TYPE":0,"CLASSIFICATION_TYPE":"U","NORAD_CAT_ID":66758,"ELEMENT_SET_NO":999,"REV_AT_EPOCH":1532,"BSTAR":0.00030409287,"MEAN_MOTION_DOT":6.332e-5,"MEAN_MOTION_DDOT":0},{"OBJECT_NAME":"SL-3 R\/B","OBJECT_ID":"1982-079B","EPOCH":"2026-03-09T22:18:18.158976","MEAN_MOTION":15.24805533,"ECCENTRICITY":0.00250364,"INCLINATION":81.1481,"RA_OF_ASC_NODE":192.7939,"ARG_OF_PERICENTER":164.0597,"MEAN_ANOMALY":196.143,"EPHEMERIS_TYPE":0,"CLASSIFICATION_TYPE":"U","NORAD_CAT_ID":13403,"ELEMENT_SET_NO":999,"REV_AT_EPOCH":37773,"BSTAR":0.00032485557,"MEAN_MOTION_DOT":8.157e-5,"MEAN_MOTION_DDOT":0}]
